[{"OBJECT_ID":"2012-002A","OBJECT_NAME":"FENGYUN 2F","NORAD_CAT_ID":"38049","OBJECT_TYPE":"PAYLOAD","PERIOD":"1436.005","INCLINATION":"1.1178","APOGEE":"35795.451","PERIGEE":"35774.150","ECCENTRICITY":"0.0002526","MEAN_MOTION":"1.00278192","TLE_LINE1":"1 38049U 12002A   16238.79284267 -.00000384  00000-0  00000+0 0  9999","TLE_LINE2":"2 38049   1.1178  76.5533 0002526 203.7367  91.6195  1.00278192 16969","LAUNCH_DATE":"2012-01-13","LAUNCH_SITE":"Xichang Space Center, China","OWNER":"PEOPLES REPUBLIC OF CHINA","ORBIT_TYPE":"Geosynchronous","OPERATIONAL_STATUS":"Operational","satInfo":{"lng":55.19840255201564,"lat":0.3984578345631667,"elevation":-8.179522559573613,"azimuth":259.80159744798436,"range":42621.77648502706,"height":35811.073428349715,"velocity":3.073569257563992},"x":246,"y":-168,"dx":1.754198042850436,"dy":-2.5238100577306066},{"OBJECT_ID":"2012-002C","OBJECT_NAME":"FENGYUN 2F AKM","NORAD_CAT_ID":"38072","OBJECT_TYPE":"ROCKET BODY","PERIOD":"1448.717","INCLINATION":"1.0965","APOGEE":"36285.313","PERIGEE":"35781.220","ECCENTRICITY":"0.0059429","MEAN_MOTION":"0.99398268","TLE_LINE1":"1 38072U 12002C   16239.41160662 -.00000197  00000-0  00000+0 0  9999","TLE_LINE2":"2 38072   1.0965  75.2120 0059429 128.1438  92.5013  0.99398268 16614","LAUNCH_DATE":"2012-01-13","LAUNCH_SITE":"Xichang Space Center, China","OWNER":"PEOPLES REPUBLIC OF CHINA","ORBIT_TYPE":"Geosynchronous","OPERATIONAL_STATUS":"N/A, derelict rocket body","satInfo":{"lng":138.07938323417807,"lat":3.331033710051716,"elevation":-5.270501606381722,"azimuth":176.92061676582193,"range":42449.7234125447,"height":35963.57893562423,"velocity":3.0707818425047955},"x":201,"y":219,"dx":-2.284880304588557,"dy":-2.0515903874702794},{"OBJECT_ID":"2012-007A","OBJECT_NAME":"SES 4","NORAD_CAT_ID":"38087","OBJECT_TYPE":"PAYLOAD","PERIOD":"1436.085","INCLINATION":"0.0189","APOGEE":"35796.472","PERIGEE":"35776.267","ECCENTRICITY":"0.0002396","MEAN_MOTION":"1.00272595","TLE_LINE1":"1 38087U 12007A   16239.38510905 -.00000197  00000-0  00000+0 0  9995","TLE_LINE2":"2 38087   0.0189 353.3740 0002396 168.6947 289.6247  1.00272595 16570","LAUNCH_DATE":"2012-02-14","LAUNCH_SITE":"TYURATAM MISSILE AND SPACE COMPLEX","OWNER":"SOCIÉTÉ EUROPÉENNE DES SATELLITES","ORBIT_TYPE":"Geosynchronous","OPERATIONAL_STATUS":"Operational","satInfo":{"lng":-80.91873255147912,"lat":-0.28869251717644406,"elevation":-8.861069766002313,"azimuth":35.91873255147913,"range":42646.48151783403,"height":35759.88276607255,"velocity":3.075566830263195},"x":-296,"y":-47,"dx":0.48543279525411565,"dy":3.037016023781727},{"OBJECT_ID":"2012-008A","OBJECT_NAME":"BEIDOU G5","NORAD_CAT_ID":"38091","OBJECT_TYPE":"PAYLOAD","PERIOD":"1436.096","INCLINATION":"1.7378","APOGEE":"35798.963","PERIGEE":"35774.196","ECCENTRICITY":"0.0002937","MEAN_MOTION":"1.00271845","TLE_LINE1":"1 38091U 12008A   16239.11875233  .00000029  00000-0  00000+0 0  9993","TLE_LINE2":"2 38091   1.7378  50.0749 0002937 172.6257 213.4979  1.00271845 16566","LAUNCH_DATE":"2012-02-24","LAUNCH_SITE":"Xichang Space Center, China","OWNER":"PEOPLES REPUBLIC OF CHINA","ORBIT_TYPE":"Geosynchronous","OPERATIONAL_STATUS":"Operational","satInfo":{"lng":91.63002337152965,"lat":3.2351172867978177,"elevation":-5.399073964490806,"azimuth":223.36997662847037,"range":42293.96855691064,"height":35795.335075645824,"velocity":3.074039713334269},"x":300,"y":8,"dx":-0.08744240376846026,"dy":-3.0727957929513354},{"OBJECT_ID":"2012-011A","OBJECT_NAME":"INTELSAT 22","NORAD_CAT_ID":"38098","OBJECT_TYPE":"PAYLOAD","PERIOD":"1436.137","INCLINATION":"0.0343","APOGEE":"35795.318","PERIGEE":"35779.464","ECCENTRICITY":"0.000188","MEAN_MOTION":"1.0026895","TLE_LINE1":"1 38098U 12011A   16238.11062819  .00000000  00000-0  10000-3 0  9995","TLE_LINE2":"2 38098   0.0343  65.6446 0001880 103.1448 276.9509  1.00268950 16128","LAUNCH_DATE":"2012-03-25","LAUNCH_SITE":"TYURATAM MISSILE AND SPACE COMPLEX","OWNER":"INTERNATIONAL TELECOMMUNICATIONS SATELLITE ORGANIZATION (INTELSAT)","ORBIT_TYPE":"Geosynchronous","OPERATIONAL_STATUS":"Operational","satInfo":{"lng":78.62390555227803,"lat":1.3780813457887353,"elevation":-7.225330872805034,"azimuth":236.37609444772198,"range":42490.34376247506,"height":35786.98252931165,"velocity":3.0746365928669697},"x":294,"y":-58,"dx":0.6064669150352954,"dy":-3.014230923330888},{"OBJECT_ID":"2012-012A","OBJECT_NAME":"COSMOS 2479","NORAD_CAT_ID":"38101","OBJECT_TYPE":"PAYLOAD","PERIOD":"1435.318","INCLINATION":"1.0844","APOGEE":"35786.715","PERIGEE":"35755.988","ECCENTRICITY":"0.0003645","MEAN_MOTION":"1.00326192","TLE_LINE1":"1 38101U 12012A   16239.07331050  .00000016  00000-0  00000+0 0  9995","TLE_LINE2":"2 38101   1.0844  61.1857 0003645 189.5743 115.6892  1.00326192 16143","LAUNCH_DATE":"2012-03-30","LAUNCH_SITE":"TYURATAM MISSILE AND SPACE COMPLEX","OWNER":"COMMONWEALTH OF INDEPENDENT STATES","ORBIT_TYPE":"Geosynchronous","OPERATIONAL_STATUS":"Nonoperational","satInfo":{"lng":-125.54772739018986,"lat":-1.1240209494692641,"elevation":-9.679643698797232,"azimuth":80.54772739018983,"range":42717.50973711958,"height":35739.31122357588,"velocity":3.0769446366854605},"x":-244,"y":170,"dx":-1.7888768804982302,"dy":2.503499111972349},{"OBJECT_ID":"2012-012D","OBJECT_NAME":"SL-12 R/B(2)","NORAD_CAT_ID":"38104","OBJECT_TYPE":"ROCKET BODY","PERIOD":"1435.458","INCLINATION":"1.0556","APOGEE":"35831.269","PERIGEE":"35716.935","ECCENTRICITY":"0.0013562","MEAN_MOTION":"1.00316371","TLE_LINE1":"1 38104U 12012D   16238.51774998 +.00000085 +00000-0 +00000-0 0  9995","TLE_LINE2":"2 38104 001.0556 060.8260 0013562 222.0632 068.5336 01.00316371016135","LAUNCH_DATE":"2012-03-30","LAUNCH_SITE":"TYURATAM MISSILE AND SPACE COMPLEX","OWNER":"COMMONWEALTH OF INDEPENDENT STATES","ORBIT_TYPE":"Geosynchronous","OPERATIONAL_STATUS":"N/A, derelict rocket body","satInfo":{"lng":26.54335245966064,"lat":-0.31708427809124046,"elevation":-8.886411636990562,"azimuth":288.45664754033936,"range":42661.29258120236,"height":35771.716814052226,"velocity":3.074990424066718},"x":134,"y":-262,"dx":2.7508756491697595,"dy":-1.374135826949748},{"OBJECT_ID":"2012-013A","OBJECT_NAME":"APSTAR 7","NORAD_CAT_ID":"38107","OBJECT_TYPE":"PAYLOAD","PERIOD":"1436.093","INCLINATION":"0.0322","APOGEE":"35797.599","PERIGEE":"35775.462","ECCENTRICITY":"0.0002625","MEAN_MOTION":"1.0027202","TLE_LINE1":"1 38107U 12013A   16238.93048515 -.00000130 +00000-0 +00000-0 0  9996","TLE_LINE2":"2 38107 000.0322 083.2651 0002625 063.6534 239.1767 01.00272020016258","LAUNCH_DATE":"2012-03-31","LAUNCH_SITE":"Xichang Space Center, China","OWNER":"PEOPLES REPUBLIC OF CHINA","ORBIT_TYPE":"Geosynchronous","OPERATIONAL_STATUS":"Operational","satInfo":{"lng":74.0451389146908,"lat":0.748858655975457,"elevation":-7.842131000131821,"azimuth":240.95486108530918,"range":42556.85994383405,"height":35784.31925403464,"velocity":3.07483598148517},"x":288,"y":-81,"dx":0.8452108118562115,"dy":-2.9563888439373516},{"OBJECT_ID":"2012-016A","OBJECT_NAME":"YAHSAT 1B","NORAD_CAT_ID":"38245","OBJECT_TYPE":"PAYLOAD","PERIOD":"1436.075","INCLINATION":"0.0148","APOGEE":"35787.472","PERIGEE":"35784.892","ECCENTRICITY":"3.06e-05","MEAN_MOTION":"1.00273263","TLE_LINE1":"1 38245U 12016A   16239.18088193  .00000098  00000-0  00000+0 0  9997","TLE_LINE2":"2 38245   0.0148 216.7194 0000306 303.4664 287.3882  1.00273263 16001","LAUNCH_DATE":"2012-04-23","LAUNCH_SITE":"TYURATAM MISSILE AND SPACE COMPLEX","OWNER":"UNITED ARAB EMIRATES","ORBIT_TYPE":"Geosynchronous","OPERATIONAL_STATUS":"Operational","satInfo":{"lng":100.26666806877628,"lat":-1.261428453149814,"elevation":-9.805465317610652,"azimuth":214.73333193122372,"range":42772.18000342545,"height":35779.41866473211,"velocity":3.074968496602966},"x":295,"y":52,"dx":-0.5480510443152016,"dy":-3.025734837675919},{"OBJECT_ID":"2012-023A","OBJECT_NAME":"JCSAT 13","NORAD_CAT_ID":"38331","OBJECT_TYPE":"PAYLOAD","PERIOD":"1436.147","INCLINATION":"0.0199","APOGEE":"35793.631","PERIGEE":"35781.529","ECCENTRICITY":"0.0001435","MEAN_MOTION":"1.00268277","TLE_LINE1":"1 38331U 12023A   16238.72670593 -.00000384 +00000-0 +00000-0 0  9991","TLE_LINE2":"2 38331 000.0199 110.9749 0001435 055.2623 193.7668 01.00268277015601","LAUNCH_DATE":"2012-05-15","LAUNCH_SITE":"FRENCH GUIANA","OWNER":"JAPAN","ORBIT_TYPE":"Geosynchronous","OPERATIONAL_STATUS":"Operational","satInfo":{"lng":88.11568235881357,"lat":0.19539118817220769,"elevation":-8.377712108608122,"azimuth":226.8843176411864,"range":42645.61010630038,"height":35812.65046493841,"velocity":3.0737533693967327},"x":300,"y":-10,"dx":0.1010699866851878,"dy":-3.0720912476144364},{"OBJECT_ID":"2012-023B","OBJECT_NAME":"VINASAT 2","NORAD_CAT_ID":"38332","OBJECT_TYPE":"PAYLOAD","PERIOD":"1436.124","INCLINATION":"0.0469","APOGEE":"35795.004","PERIGEE":"35779.260","ECCENTRICITY":"0.0001867","MEAN_MOTION":"1.00269875","TLE_LINE1":"1 38332U 12023B   16238.84925477 -.00000357 +00000-0 +00000-0 0  9999","TLE_LINE2":"2 38332 000.0469 291.7315 0001867 251.6417 228.7205 01.00269875010731","LAUNCH_DATE":"2012-05-15","LAUNCH_SITE":"FRENCH GUIANA","OWNER":"VIETNAM","ORBIT_TYPE":"Geosynchronous","OPERATIONAL_STATUS":"Operational","satInfo":{"lng":126.44486968953333,"lat":-1.4636677404325775,"elevation":-9.999476141200235,"azimuth":188.55513031046667,"range":42808.49710654847,"height":35793.816612927985,"velocity":3.0745372502631882},"x":241,"y":174,"dx":-1.8264258898957662,"dy":-2.473246403408764}]